{
  "type": "FeatureCollection",
  "features": [
    {
      "type": "Feature",
      "properties": {
        "norad_id": 37993,
        "name": "COSMOS 2251 DEB",
        "group": "cosmos-2251-debris",
        "lat": 24.525083371401152,
        "lon": -34.914293999095804,
        "alt_km": 691.0248857269589,
        "timestamp": "2025-12-20T05:41:50.429292+00:00",
        "meta_object_name": "COSMOS 2251 DEB",
        "meta_object_id": "1993-036BQU",
        "meta_epoch": "2025-12-17T04:37:52.855104",
        "meta_mean_motion": 14.59966404,
        "meta_eccentricity": 0.00218755,
        "meta_inclination": 74.021,
        "meta_ra_of_asc_node": 158.4097,
        "meta_arg_of_pericenter": 246.7183,
        "meta_mean_anomaly": 113.168,
        "meta_ephemeris_type": 0,
        "meta_classification_type": "U",
        "meta_norad_cat_id": 37993,
        "meta_element_set_no": 999,
        "meta_rev_at_epoch": 65382,
        "meta_bstar": 0.0010496489,
        "meta_mean_motion_dot": 5.024e-05,
        "meta_mean_motion_ddot": 0,
        "tle_line1": "1 37993U 93036BQU 25351.19297286  .00005024  00000+0  10496-2 0  9994",
        "tle_line2": "2 37993  74.0210 158.4097 0021875 246.7183 113.1680 14.59966404653827"
      },
      "geometry": {
        "type": "Point",
        "coordinates": [
          -34.914293999095804,
          24.525083371401152
        ]
      }
    },
    {
      "type": "Feature",
      "properties": {
        "norad_id": 37994,
        "name": "COSMOS 2251 DEB",
        "group": "cosmos-2251-debris",
        "lat": 51.15699619591482,
        "lon": -77.33330051713756,
        "alt_km": 750.0949035632375,
        "timestamp": "2025-12-20T05:41:50.429303+00:00",
        "meta_object_name": "COSMOS 2251 DEB",
        "meta_object_id": "1993-036BQV",
        "meta_epoch": "2025-12-19T11:06:08.507808",
        "meta_mean_motion": 14.396377,
        "meta_eccentricity": 0.0023202,
        "meta_inclination": 74.0361,
        "meta_ra_of_asc_node": 263.2743,
        "meta_arg_of_pericenter": 341.4915,
        "meta_mean_anomaly": 18.5393,
        "meta_ephemeris_type": 0,
        "meta_classification_type": "U",
        "meta_norad_cat_id": 37994,
        "meta_element_set_no": 999,
        "meta_rev_at_epoch": 77161,
        "meta_bstar": 0.00024463,
        "meta_mean_motion_dot": 7.41e-06,
        "meta_mean_motion_ddot": 0,
        "tle_line1": "1 37994U 93036BQV 25353.46259847  .00000741  00000+0  24463-3 0  9999",
        "tle_line2": "2 37994  74.0361 263.2743 0023202 341.4915  18.5393 14.39637700771619"
      },
      "geometry": {
        "type": "Point",
        "coordinates": [
          -77.33330051713756,
          51.15699619591482
        ]
      }
    },
    {
      "type": "Feature",
      "properties": {
        "norad_id": 37998,
        "name": "COSMOS 2251 DEB",
        "group": "cosmos-2251-debris",
        "lat": 60.88647357327453,
        "lon": 10.213735396245594,
        "alt_km": 748.1923849586383,
        "timestamp": "2025-12-20T05:41:50.429313+00:00",
        "meta_object_name": "COSMOS 2251 DEB",
        "meta_object_id": "1993-036BQZ",
        "meta_epoch": "2025-12-07T01:34:33.386016",
        "meta_mean_motion": 14.45444842,
        "meta_eccentricity": 0.00199405,
        "meta_inclination": 74.0387,
        "meta_ra_of_asc_node": 245.6796,
        "meta_arg_of_pericenter": 320.6712,
        "meta_mean_anomaly": 39.2997,
        "meta_ephemeris_type": 0,
        "meta_classification_type": "U",
        "meta_norad_cat_id": 37998,
        "meta_element_set_no": 999,
        "meta_rev_at_epoch": 64205,
        "meta_bstar": 0.00093558552,
        "meta_mean_motion_dot": 3.277e-05,
        "meta_mean_motion_ddot": 0,
        "tle_line1": "1 37998U 93036BQZ 25341.06566419  .00003277  00000+0  93559-3 0  9991",
        "tle_line2": "2 37998  74.0387 245.6796 0019940 320.6712  39.2997 14.45444842642056"
      },
      "geometry": {
        "type": "Point",
        "coordinates": [
          10.213735396245594,
          60.88647357327453
        ]
      }
    },
    {
      "type": "Feature",
      "properties": {
        "norad_id": 38001,
        "name": "COSMOS 2251 DEB",
        "group": "cosmos-2251-debris",
        "lat": -70.3892716281588,
        "lon": -8.818168143254091,
        "alt_km": 593.384290301572,
        "timestamp": "2025-12-20T05:41:50.429323+00:00",
        "meta_object_name": "COSMOS 2251 DEB",
        "meta_object_id": "1993-036BRC",
        "meta_epoch": "2025-12-18T08:50:38.200416",
        "meta_mean_motion": 14.7913974,
        "meta_eccentricity": 0.00654266,
        "meta_inclination": 74.002,
        "meta_ra_of_asc_node": 121.2316,
        "meta_arg_of_pericenter": 269.6839,
        "meta_mean_anomaly": 121.3224,
        "meta_ephemeris_type": 0,
        "meta_classification_type": "U",
        "meta_norad_cat_id": 38001,
        "meta_element_set_no": 999,
        "meta_rev_at_epoch": 74791,
        "meta_bstar": 0.00069232244,
        "meta_mean_motion_dot": 5.288e-05,
        "meta_mean_motion_ddot": 0,
        "tle_line1": "1 38001U 93036BRC 25352.36849769  .00005288  00000+0  69232-3 0  9999",
        "tle_line2": "2 38001  74.0020 121.2316 0065426 269.6839 121.3224 14.79139740747917"
      },
      "geometry": {
        "type": "Point",
        "coordinates": [
          -8.818168143254091,
          -70.3892716281588
        ]
      }
    },
    {
      "type": "Feature",
      "properties": {
        "norad_id": 38006,
        "name": "COSMOS 2251 DEB",
        "group": "cosmos-2251-debris",
        "lat": -65.61082623590279,
        "lon": -15.717995424689102,
        "alt_km": 702.7504667566691,
        "timestamp": "2025-12-20T05:41:50.429334+00:00",
        "meta_object_name": "COSMOS 2251 DEB",
        "meta_object_id": "1993-036BRH",
        "meta_epoch": "2025-12-10T03:36:37.956384",
        "meta_mean_motion": 14.45867865,
        "meta_eccentricity": 0.00758537,
        "meta_inclination": 73.8744,
        "meta_ra_of_asc_node": 42.933,
        "meta_arg_of_pericenter": 348.3853,
        "meta_mean_anomaly": 11.555,
        "meta_ephemeris_type": 0,
        "meta_classification_type": "U",
        "meta_norad_cat_id": 38006,
        "meta_element_set_no": 999,
        "meta_rev_at_epoch": 62922,
        "meta_bstar": 0.0047338847,
        "meta_mean_motion_dot": 0.00017443,
        "meta_mean_motion_ddot": 0,
        "tle_line1": "1 38006U 93036BRH 25344.15043931  .00017443  00000+0  47339-2 0  9998",
        "tle_line2": "2 38006  73.8744  42.9330 0075853 348.3853  11.5550 14.45867865629227"
      },
      "geometry": {
        "type": "Point",
        "coordinates": [
          -15.717995424689102,
          -65.61082623590279
        ]
      }
    },
    {
      "type": "Feature",
      "properties": {
        "norad_id": 38054,
        "name": "COSMOS 2251 DEB",
        "group": "cosmos-2251-debris",
        "lat": -45.44237978457649,
        "lon": -123.47189172251798,
        "alt_km": 987.6807628392462,
        "timestamp": "2025-12-20T05:41:50.429344+00:00",
        "meta_object_name": "COSMOS 2251 DEB",
        "meta_object_id": "1993-036BRL",
        "meta_epoch": "2025-12-19T04:17:14.300736",
        "meta_mean_motion": 13.62371953,
        "meta_eccentricity": 0.03577355,
        "meta_inclination": 73.9533,
        "meta_ra_of_asc_node": 255.2542,
        "meta_arg_of_pericenter": 232.0768,
        "meta_mean_anomaly": 285.3471,
        "meta_ephemeris_type": 0,
        "meta_classification_type": "U",
        "meta_norad_cat_id": 38054,
        "meta_element_set_no": 999,
        "meta_rev_at_epoch": 67267,
        "meta_bstar": 0.0015341979,
        "meta_mean_motion_dot": 1.803e-05,
        "meta_mean_motion_ddot": 0,
        "tle_line1": "1 38054U 93036BRL 25353.17863774  .00001803  00000+0  15342-2 0  9990",
        "tle_line2": "2 38054  73.9533 255.2542 0357735 232.0768 285.3471 13.62371953672673"
      },
      "geometry": {
        "type": "Point",
        "coordinates": [
          -123.47189172251798,
          -45.44237978457649
        ]
      }
    },
    {
      "type": "Feature",
      "properties": {
        "norad_id": 38055,
        "name": "COSMOS 2251 DEB",
        "group": "cosmos-2251-debris",
        "lat": 73.78493261146428,
        "lon": -68.4069771311234,
        "alt_km": 663.6970316959023,
        "timestamp": "2025-12-20T05:41:50.429354+00:00",
        "meta_object_name": "COSMOS 2251 DEB",
        "meta_object_id": "1993-036BRM",
        "meta_epoch": "2025-12-17T08:11:30.244992",
        "meta_mean_motion": 14.7702463,
        "meta_eccentricity": 0.00659373,
        "meta_inclination": 74.0086,
        "meta_ra_of_asc_node": 197.7207,
        "meta_arg_of_pericenter": 324.2561,
        "meta_mean_anomaly": 214.9327,
        "meta_ephemeris_type": 0,
        "meta_classification_type": "U",
        "meta_norad_cat_id": 38055,
        "meta_element_set_no": 999,
        "meta_rev_at_epoch": 60750,
        "meta_bstar": 0.00054119161,
        "meta_mean_motion_dot": 3.922e-05,
        "meta_mean_motion_ddot": 0,
        "tle_line1": "1 38055U 93036BRM 25351.34132228  .00003922  00000+0  54119-3 0  9991",
        "tle_line2": "2 38055  74.0086 197.7207 0065937 324.2561 214.9327 14.77024630607504"
      },
      "geometry": {
        "type": "Point",
        "coordinates": [
          -68.4069771311234,
          73.78493261146428
        ]
      }
    }
  ]
}